FLOCK 4H-31             
1 66734U 25276BW  25354.12723655  .00007944  00000+0  40317-3 0  9999
2 66734  97.4404  65.7446 0002494 291.7917  68.3051 15.17180172  3248
FLOCK 4H-32             
1 66735U 25276BX  25354.00002315  .00025327  00000+0  12750-2 0  9994
2 66735  97.4441  65.6376 0003264 273.6646 109.5980 15.17179707  2650
FLOCK 4H-33             
1 66736U 25276BY  25354.17888770  .00006215  00000+0  30675-3 0  9992
2 66736  97.4438  65.8458 0002379 165.6799 194.4502 15.18246372  3259
FLOCK 4H-34             
1 66737U 25276BZ  25354.18033527  .00004517  00000+0  22468-3 0  9990
2 66737  97.4450  65.8484 0002290 176.3551 183.7700 15.18117302  2508
FLOCK 4H-35             
1 66738U 25276CA  25354.17887022  .00006624  00000+0  32700-3 0  9998
2 66738  97.4414  65.8381 0002102 149.7087 210.4268 15.18213939  2549
FLOCK 4H-36             
1 66739U 25276CB  25354.18246605  .00004814  00000+0  24034-3 0  9996
2 66739  97.4461  65.8486 0002168 192.7906 167.3274 15.17959724  3252
TRANSPORTER-15 CC       
1 66740U 25276CC  25354.18673779  .00005235  00000+0  26319-3 0  9990
2 66740  97.4423  65.8355 0001960 252.4875 107.6144 15.17671270  3255
TRANSPORTER-15 CD       
1 66741U 25276CD  25354.18775594 -.00130377  00000+0 -67002-2 0  9990
2 66741  97.4420  65.8267 0001313 149.7198 210.4111 15.17097812  3254
TRANSPORTER-15 CE       
1 66742U 25276CE  25354.18616850  .00005746  00000+0  28856-3 0  9994
2 66742  97.4415  65.8259 0001418 202.2894 157.8278 15.17673287  3258
TRANSPORTER-15 CF       
1 66743U 25276CF  25353.66186270  .00004194  00000+0  21278-3 0  9992
2 66743  97.4415  65.3031 0000432 269.9787  90.1397 15.17467426  3176
TRANSPORTER-15 CG       
1 66744U 25276CG  25354.19054174  .00004771  00000+0  24270-3 0  9995
2 66744  97.4425  65.8290 0001300 264.2083  95.9003 15.17308878  3253
TRANSPORTER-15 CH       
1 66745U 25276CH  25352.14493979  .00002939  00000+0  15035-3 0  9992
2 66745  97.4425  63.8169 0000888 243.2573 116.8570 15.17410402  2942
