CCSDS_OMM_VERS = 2.0
CREATION_DATE  = 
ORIGINATOR     = 

OBJECT_NAME    = FLOCK 4H-31
OBJECT_ID      = 2025-276BW
CENTER_NAME    = EARTH
REF_FRAME      = TEME
TIME_SYSTEM    = UTC
MEAN_ELEMENT_THEORY = SGP/SGP4

EPOCH          = 2025-12-20T03:03:13.237920
MEAN_MOTION    = 15.17180172
ECCENTRICITY   = .0002494
INCLINATION    = 97.4404
RA_OF_ASC_NODE = 65.7446
ARG_OF_PERICENTER = 291.7917
MEAN_ANOMALY   = 68.3051

EPHEMERIS_TYPE = 0
CLASSIFICATION_TYPE = U
NORAD_CAT_ID   = 66734
ELEMENT_SET_NO = 999
REV_AT_EPOCH   = 324
BSTAR          = .40317E-3
MEAN_MOTION_DOT = .7944E-4
MEAN_MOTION_DDOT = 0

CCSDS_OMM_VERS = 2.0
CREATION_DATE  = 
ORIGINATOR     = 

OBJECT_NAME    = FLOCK 4H-32
OBJECT_ID      = 2025-276BX
CENTER_NAME    = EARTH
REF_FRAME      = TEME
TIME_SYSTEM    = UTC
MEAN_ELEMENT_THEORY = SGP/SGP4

EPOCH          = 2025-12-20T00:00:02.000160
MEAN_MOTION    = 15.17179707
ECCENTRICITY   = .0003264
INCLINATION    = 97.4441
RA_OF_ASC_NODE = 65.6376
ARG_OF_PERICENTER = 273.6646
MEAN_ANOMALY   = 109.5980

EPHEMERIS_TYPE = 0
CLASSIFICATION_TYPE = U
NORAD_CAT_ID   = 66735
ELEMENT_SET_NO = 999
REV_AT_EPOCH   = 265
BSTAR          = .1275E-2
MEAN_MOTION_DOT = .25327E-3
MEAN_MOTION_DDOT = 0

CCSDS_OMM_VERS = 2.0
CREATION_DATE  = 
ORIGINATOR     = 

OBJECT_NAME    = FLOCK 4H-33
OBJECT_ID      = 2025-276BY
CENTER_NAME    = EARTH
REF_FRAME      = TEME
TIME_SYSTEM    = UTC
MEAN_ELEMENT_THEORY = SGP/SGP4

EPOCH          = 2025-12-20T04:17:35.897280
MEAN_MOTION    = 15.18246372
ECCENTRICITY   = .0002379
INCLINATION    = 97.4438
RA_OF_ASC_NODE = 65.8458
ARG_OF_PERICENTER = 165.6799
MEAN_ANOMALY   = 194.4502

EPHEMERIS_TYPE = 0
CLASSIFICATION_TYPE = U
NORAD_CAT_ID   = 66736
ELEMENT_SET_NO = 999
REV_AT_EPOCH   = 325
BSTAR          = .30675E-3
MEAN_MOTION_DOT = .6215E-4
MEAN_MOTION_DDOT = 0

CCSDS_OMM_VERS = 2.0
CREATION_DATE  = 
ORIGINATOR     = 

OBJECT_NAME    = FLOCK 4H-34
OBJECT_ID      = 2025-276BZ
CENTER_NAME    = EARTH
REF_FRAME      = TEME
TIME_SYSTEM    = UTC
MEAN_ELEMENT_THEORY = SGP/SGP4

EPOCH          = 2025-12-20T04:19:40.967328
MEAN_MOTION    = 15.18117302
ECCENTRICITY   = .000229
INCLINATION    = 97.4450
RA_OF_ASC_NODE = 65.8484
ARG_OF_PERICENTER = 176.3551
MEAN_ANOMALY   = 183.7700

EPHEMERIS_TYPE = 0
CLASSIFICATION_TYPE = U
NORAD_CAT_ID   = 66737
ELEMENT_SET_NO = 999
REV_AT_EPOCH   = 250
BSTAR          = .22468E-3
MEAN_MOTION_DOT = .4517E-4
MEAN_MOTION_DDOT = 0

CCSDS_OMM_VERS = 2.0
CREATION_DATE  = 
ORIGINATOR     = 

OBJECT_NAME    = FLOCK 4H-35
OBJECT_ID      = 2025-276CA
CENTER_NAME    = EARTH
REF_FRAME      = TEME
TIME_SYSTEM    = UTC
MEAN_ELEMENT_THEORY = SGP/SGP4

EPOCH          = 2025-12-20T04:17:34.387008
MEAN_MOTION    = 15.18213939
ECCENTRICITY   = .0002102
INCLINATION    = 97.4414
RA_OF_ASC_NODE = 65.8381
ARG_OF_PERICENTER = 149.7087
MEAN_ANOMALY   = 210.4268

EPHEMERIS_TYPE = 0
CLASSIFICATION_TYPE = U
NORAD_CAT_ID   = 66738
ELEMENT_SET_NO = 999
REV_AT_EPOCH   = 254
BSTAR          = .327E-3
MEAN_MOTION_DOT = .6624E-4
MEAN_MOTION_DDOT = 0

CCSDS_OMM_VERS = 2.0
CREATION_DATE  = 
ORIGINATOR     = 

OBJECT_NAME    = FLOCK 4H-36
OBJECT_ID      = 2025-276CB
CENTER_NAME    = EARTH
REF_FRAME      = TEME
TIME_SYSTEM    = UTC
MEAN_ELEMENT_THEORY = SGP/SGP4

EPOCH          = 2025-12-20T04:22:45.066720
MEAN_MOTION    = 15.17959724
ECCENTRICITY   = .0002168
INCLINATION    = 97.4461
RA_OF_ASC_NODE = 65.8486
ARG_OF_PERICENTER = 192.7906
MEAN_ANOMALY   = 167.3274

EPHEMERIS_TYPE = 0
CLASSIFICATION_TYPE = U
NORAD_CAT_ID   = 66739
ELEMENT_SET_NO = 999
REV_AT_EPOCH   = 325
BSTAR          = .24034E-3
MEAN_MOTION_DOT = .4814E-4
MEAN_MOTION_DDOT = 0

CCSDS_OMM_VERS = 2.0
CREATION_DATE  = 
ORIGINATOR     = 

OBJECT_NAME    = TRANSPORTER-15 CC
OBJECT_ID      = 2025-276CC
CENTER_NAME    = EARTH
REF_FRAME      = TEME
TIME_SYSTEM    = UTC
MEAN_ELEMENT_THEORY = SGP/SGP4

EPOCH          = 2025-12-20T04:28:54.145056
MEAN_MOTION    = 15.17671270
ECCENTRICITY   = .000196
INCLINATION    = 97.4423
RA_OF_ASC_NODE = 65.8355
ARG_OF_PERICENTER = 252.4875
MEAN_ANOMALY   = 107.6144

EPHEMERIS_TYPE = 0
CLASSIFICATION_TYPE = U
NORAD_CAT_ID   = 66740
ELEMENT_SET_NO = 999
REV_AT_EPOCH   = 325
BSTAR          = .26319E-3
MEAN_MOTION_DOT = .5235E-4
MEAN_MOTION_DDOT = 0

CCSDS_OMM_VERS = 2.0
CREATION_DATE  = 
ORIGINATOR     = 

OBJECT_NAME    = TRANSPORTER-15 CD
OBJECT_ID      = 2025-276CD
CENTER_NAME    = EARTH
REF_FRAME      = TEME
TIME_SYSTEM    = UTC
MEAN_ELEMENT_THEORY = SGP/SGP4

EPOCH          = 2025-12-20T04:30:22.113216
MEAN_MOTION    = 15.17097812
ECCENTRICITY   = .0001313
INCLINATION    = 97.4420
RA_OF_ASC_NODE = 65.8267
ARG_OF_PERICENTER = 149.7198
MEAN_ANOMALY   = 210.4111

EPHEMERIS_TYPE = 0
CLASSIFICATION_TYPE = U
NORAD_CAT_ID   = 66741
ELEMENT_SET_NO = 999
REV_AT_EPOCH   = 325
BSTAR          = -.67002E-2
MEAN_MOTION_DOT = -.130377E-2
MEAN_MOTION_DDOT = 0

CCSDS_OMM_VERS = 2.0
CREATION_DATE  = 
ORIGINATOR     = 

OBJECT_NAME    = TRANSPORTER-15 CE
OBJECT_ID      = 2025-276CE
CENTER_NAME    = EARTH
REF_FRAME      = TEME
TIME_SYSTEM    = UTC
MEAN_ELEMENT_THEORY = SGP/SGP4

EPOCH          = 2025-12-20T04:28:04.958400
MEAN_MOTION    = 15.17673287
ECCENTRICITY   = .0001418
INCLINATION    = 97.4415
RA_OF_ASC_NODE = 65.8259
ARG_OF_PERICENTER = 202.2894
MEAN_ANOMALY   = 157.8278

EPHEMERIS_TYPE = 0
CLASSIFICATION_TYPE = U
NORAD_CAT_ID   = 66742
ELEMENT_SET_NO = 999
REV_AT_EPOCH   = 325
BSTAR          = .28856E-3
MEAN_MOTION_DOT = .5746E-4
MEAN_MOTION_DDOT = 0

CCSDS_OMM_VERS = 2.0
CREATION_DATE  = 
ORIGINATOR     = 

OBJECT_NAME    = TRANSPORTER-15 CF
OBJECT_ID      = 2025-276CF
CENTER_NAME    = EARTH
REF_FRAME      = TEME
TIME_SYSTEM    = UTC
MEAN_ELEMENT_THEORY = SGP/SGP4

EPOCH          = 2025-12-19T15:53:04.937280
MEAN_MOTION    = 15.17467426
ECCENTRICITY   = .00004328
INCLINATION    = 97.4415
RA_OF_ASC_NODE = 65.3031
ARG_OF_PERICENTER = 269.9787
MEAN_ANOMALY   = 90.1397

EPHEMERIS_TYPE = 0
CLASSIFICATION_TYPE = U
NORAD_CAT_ID   = 66743
ELEMENT_SET_NO = 999
REV_AT_EPOCH   = 317
BSTAR          = .21277504E-3
MEAN_MOTION_DOT = .4194E-4
MEAN_MOTION_DDOT = 0

CCSDS_OMM_VERS = 2.0
CREATION_DATE  = 
ORIGINATOR     = 

OBJECT_NAME    = TRANSPORTER-15 CG
OBJECT_ID      = 2025-276CG
CENTER_NAME    = EARTH
REF_FRAME      = TEME
TIME_SYSTEM    = UTC
MEAN_ELEMENT_THEORY = SGP/SGP4

EPOCH          = 2025-12-20T04:34:22.806336
MEAN_MOTION    = 15.17308878
ECCENTRICITY   = .00013
INCLINATION    = 97.4425
RA_OF_ASC_NODE = 65.8290
ARG_OF_PERICENTER = 264.2083
MEAN_ANOMALY   = 95.9003

EPHEMERIS_TYPE = 0
CLASSIFICATION_TYPE = U
NORAD_CAT_ID   = 66744
ELEMENT_SET_NO = 999
REV_AT_EPOCH   = 325
BSTAR          = .2427E-3
MEAN_MOTION_DOT = .4771E-4
MEAN_MOTION_DDOT = 0

CCSDS_OMM_VERS = 2.0
CREATION_DATE  = 
ORIGINATOR     = 

OBJECT_NAME    = TRANSPORTER-15 CH
OBJECT_ID      = 2025-276CH
CENTER_NAME    = EARTH
REF_FRAME      = TEME
TIME_SYSTEM    = UTC
MEAN_ELEMENT_THEORY = SGP/SGP4

EPOCH          = 2025-12-18T03:28:42.797856
MEAN_MOTION    = 15.17410402
ECCENTRICITY   = .00008886
INCLINATION    = 97.4425
RA_OF_ASC_NODE = 63.8169
ARG_OF_PERICENTER = 243.2573
MEAN_ANOMALY   = 116.8570

EPHEMERIS_TYPE = 0
CLASSIFICATION_TYPE = U
NORAD_CAT_ID   = 66745
ELEMENT_SET_NO = 999
REV_AT_EPOCH   = 294
BSTAR          = .15034976E-3
MEAN_MOTION_DOT = .2939E-4
MEAN_MOTION_DDOT = 0

